FENGYUN 1C DEB          
1 36694U 99025DZQ 17345.70448394  .00000142  00000-0  94510-4 0  9992
2 36694  98.9614 292.9144 0113240 304.8521  54.2043 14.13125164523053
